STARLINK-37992          
1 69681U 26145E   26198.52405732  .00179502  00000+0  11759-2 0  9990
2 69681  97.2839  45.4807 0001609 107.2866 252.8575 15.75255277  3546
STARLINK-37997          
1 69682U 26145F   26198.00002315 -.00003501  00000+0 -22625-4 0  9997
2 69682  97.2838  44.9322 0001192  99.5818 174.9569 15.75175815  4715
STARLINK-37990          
1 69683U 26145G   26198.52370458  .00178067  00000+0  11667-2 0  9991
2 69683  97.2842  45.4807 0001613 112.9047 247.2389 15.75254584  3542
STARLINK-37951          
1 69684U 26145H   26198.52264615  .00185428  00000+0  12139-2 0  9993
2 69684  97.2841  45.4823 0001348 110.0057 250.1354 15.75252956  3541
STARLINK-37957          
1 69685U 26145J   26198.26747569  .00100649  00000+0  66715-3 0  9991
2 69685  97.2839  45.2173 0001432 105.2444 254.8980 15.75210354  3503
STARLINK-37968          
1 69686U 26145K   26198.51558786  .00105895  00000+0  70101-3 0  9993
2 69686  97.2844  45.4928 0001651  95.9194 264.2259 15.75224485  3548
STARLINK-37977          
1 69687U 26145L   26198.51487890  .00184331  00000+0  12065-2 0  9997
2 69687  97.2841  45.4935 0001343 116.2878 243.8526 15.75262015  3549
STARLINK-37908          
1 69688U 26145M   26198.51276464  .00156319  00000+0  10267-2 0  9998
2 69688  97.2839  45.4969 0001393 103.7823 256.3598 15.75260988  3545
STARLINK-37979          
1 69689U 26145N   26198.51241145  .00191161  00000+0  12505-2 0  9998
2 69689  97.2850  45.4975 0001363 105.8012 254.3404 15.75255867  3540
STARLINK-37940          
1 69690U 26145P   26198.06665810  .00101444  00000+0  67352-3 0  9995
2 69690  97.2839  45.0319 0001445  88.4621 271.6810 15.75170038  3471
STARLINK-37961          
1 69691U 26145Q   26198.50817707  .00179012  00000+0  11729-2 0  9991
2 69691  97.2839  45.5018 0001262  84.5842 275.5567 15.75252633  3544
STARLINK-37787          
1 69692U 26145R   26198.06136587  .00174945  00000+0  11501-2 0  9991
2 69692  97.2842  45.0387 0001489  93.4920 266.6515 15.75186480  3472
STARLINK-37962          
1 69693U 26145S   26198.50429545  .00192527  00000+0  12591-2 0  9996
2 69693  97.2840  45.5080 0001406  80.7205 279.4219 15.75257721  3548
STARLINK-37953          
1 69694U 26145T   26198.06242820  .00145880  00000+0  96263-3 0  9996
2 69694  97.2841  45.0375 0002481  74.7257 285.4283 15.75180134  3479
STARLINK-37926          
1 69695U 26145U   26198.50641283  .00172080  00000+0  11289-2 0  9998
2 69695  97.2839  45.5052 0000950  73.7381 286.3989 15.75242604  3542
STARLINK-37959          
1 69696U 26145V   26198.06065942  .00122801  00000+0  81329-3 0  9991
2 69696  97.2834  45.0383 0001669  61.2309 298.9124 15.75164016  3472
STARLINK-37976          
1 69697U 26145W   26198.56605943  .00179256  00000+0  11741-2 0  9994
2 69697  97.2838  45.5763 0001428  70.0260 290.1159 15.75260046  3552
STARLINK-37912          
1 69698U 26145X   26198.05677373  .00219535  00000+0  14293-2 0  9995
2 69698  97.2835  45.0455 0001401  60.5202 299.6203 15.75285434  3477
STARLINK-37974          
1 69699U 26145Y   26198.05607422  .00163366  00000+0  10723-2 0  9998
2 69699  97.2835  45.0460 0001635  78.3038 281.8410 15.75254304  3472
STARLINK-37955          
1 69700U 26145Z   26198.05360393  .00152265  00000+0  10009-2 0  9997
2 69700  97.2833  45.0506 0001393  65.2434 294.8976 15.75253311  3478
STRIX-8                 
1 69701U 26146A   26198.60891217  .00002146  00000+0  16429-3 0  9999
2 69701  41.9905 359.7218 0006817  39.8334 320.2993 15.04445837  3147
STARLINK-38055          
1 69704U 26147A   26198.57467808  .00186879  00000+0  95206-3 0  9990
2 69704  97.2823 235.0989 0001135  86.7339 273.4059 15.80898018  4238
STARLINK-37898          
1 69705U 26147B   26198.57385309  .00316619  00000+0  15837-2 0  9994
2 69705  97.2830 235.1000 0000859  45.6556 314.4783 15.80963522  4232
STARLINK-37970          
1 69706U 26147C   26198.57310346  .00296503  00000+0  14878-2 0  9997
2 69706  97.2812 235.1018 0001312  55.1550 304.9841 15.80946447  4233
STARLINK-37975          
1 69707U 26147D   26198.57235027  .00280358  00000+0  14099-2 0  9996
2 69707  97.2824 235.1024 0000949  59.1625 300.9737 15.80939588  4234
STARLINK-37972          
1 69708U 26147E   26198.57160122  .00226940  00000+0  11513-2 0  9995
2 69708  97.2808 235.1043 0001381  81.5756 278.5669 15.80885071  4234
STARLINK-37963          
1 69709U 26147F   26198.57084860  .00195259  00000+0  99377-3 0  9993
2 69709  97.2818 235.1044 0001300  72.3599 287.7811 15.80897642  4239
STARLINK-37969          
1 69710U 26147G   26198.57009528  .00227299  00000+0  11512-2 0  9997
2 69710  97.2824 235.1055 0000921  68.1295 292.0071 15.80921867  4238
